[{"OBJECT_NAME":"STARLINK-30345","OBJECT_ID":"2023-129D","EPOCH":"2026-03-07T04:47:38.569344","MEAN_MOTION":15.26749181,"ECCENTRICITY":4.279e-5,"INCLINATION":42.9993,"RA_OF_ASC_NODE":131.8146,"ARG_OF_PERICENTER":177.5225,"MEAN_ANOMALY":182.5629,"EPHEMERIS_TYPE":0,"CLASSIFICATION_TYPE":"U","NORAD_CAT_ID":57701,"ELEMENT_SET_NO":999,"REV_AT_EPOCH":14016,"BSTAR":7.466764e-5,"MEAN_MOTION_DOT":1.744e-5,"MEAN_MOTION_DDOT":0},{"OBJECT_NAME":"STARLINK-30333","OBJECT_ID":"2023-129E","EPOCH":"2026-03-07T10:44:00.909600","MEAN_MOTION":15.26790527,"ECCENTRICITY":0.00027371,"INCLINATION":43.0029,"RA_OF_ASC_NODE":130.2299,"ARG_OF_PERICENTER":289.1589,"MEAN_ANOMALY":70.8966,"EPHEMERIS_TYPE":0,"CLASSIFICATION_TYPE":"U","NORAD_CAT_ID":57702,"ELEMENT_SET_NO":999,"REV_AT_EPOCH":14034,"BSTAR":0.00047466276,"MEAN_MOTION_DOT":0.00012514,"MEAN_MOTION_DDOT":0},{"OBJECT_NAME":"STARLINK-30336","OBJECT_ID":"2023-129F","EPOCH":"2026-03-07T14:00:01.000224","MEAN_MOTION":15.26686051,"ECCENTRICITY":0.00017351,"INCLINATION":42.9993,"RA_OF_ASC_NODE":129.7268,"ARG_OF_PERICENTER":278.5156,"MEAN_ANOMALY":359.5849,"EPHEMERIS_TYPE":0,"CLASSIFICATION_TYPE":"U","NORAD_CAT_ID":57703,"ELEMENT_SET_NO":999,"REV_AT_EPOCH":567,"BSTAR":0.0026348212,"MEAN_MOTION_DOT":0.00070983,"MEAN_MOTION_DDOT":0},{"OBJECT_NAME":"STARLINK-30346","OBJECT_ID":"2023-129G","EPOCH":"2026-03-07T10:47:19.646016","MEAN_MOTION":15.26747787,"ECCENTRICITY":0.00015636,"INCLINATION":43.0041,"RA_OF_ASC_NODE":130.2469,"ARG_OF_PERICENTER":272.6719,"MEAN_ANOMALY":87.3953,"EPHEMERIS_TYPE":0,"CLASSIFICATION_TYPE":"U","NORAD_CAT_ID":57704,"ELEMENT_SET_NO":999,"REV_AT_EPOCH":14020,"BSTAR":5.3345531e-5,"MEAN_MOTION_DOT":1.172e-5,"MEAN_MOTION_DDOT":0},{"OBJECT_NAME":"STARLINK-30327","OBJECT_ID":"2023-129K","EPOCH":"2026-03-07T08:36:14.931360","MEAN_MOTION":15.2645666,"ECCENTRICITY":0.00216724,"INCLINATION":42.9976,"RA_OF_ASC_NODE":98.1592,"ARG_OF_PERICENTER":56.6239,"MEAN_ANOMALY":303.6683,"EPHEMERIS_TYPE":0,"CLASSIFICATION_TYPE":"U","NORAD_CAT_ID":57707,"ELEMENT_SET_NO":999,"REV_AT_EPOCH":14057,"BSTAR":0.0040961017,"MEAN_MOTION_DOT":0.00111027,"MEAN_MOTION_DDOT":0},{"OBJECT_NAME":"STARLINK-30315","OBJECT_ID":"2023-129L","EPOCH":"2026-03-07T14:00:01.000224","MEAN_MOTION":15.26742296,"ECCENTRICITY":0.00010973,"INCLINATION":42.9992,"RA_OF_ASC_NODE":129.7382,"ARG_OF_PERICENTER":274.108,"MEAN_ANOMALY":357.1009,"EPHEMERIS_TYPE":0,"CLASSIFICATION_TYPE":"U","NORAD_CAT_ID":57708,"ELEMENT_SET_NO":999,"REV_AT_EPOCH":578,"BSTAR":0.0027162463,"MEAN_MOTION_DOT":0.00073333,"MEAN_MOTION_DDOT":0},{"OBJECT_NAME":"STARLINK-30287","OBJECT_ID":"2023-129M","EPOCH":"2026-03-07T04:35:48.214464","MEAN_MOTION":15.26747877,"ECCENTRICITY":8.156e-5,"INCLINATION":42.9985,"RA_OF_ASC_NODE":131.7458,"ARG_OF_PERICENTER":177.9063,"MEAN_ANOMALY":182.1792,"EPHEMERIS_TYPE":0,"CLASSIFICATION_TYPE":"U","NORAD_CAT_ID":57709,"ELEMENT_SET_NO":999,"REV_AT_EPOCH":14030,"BSTAR":0.00012633394,"MEAN_MOTION_DOT":3.131e-5,"MEAN_MOTION_DDOT":0},{"OBJECT_NAME":"STARLINK-30335","OBJECT_ID":"2023-129N","EPOCH":"2026-03-07T11:00:18.950688","MEAN_MOTION":15.26734217,"ECCENTRICITY":0.00017777,"INCLINATION":43.0023,"RA_OF_ASC_NODE":130.311,"ARG_OF_PERICENTER":284.6147,"MEAN_ANOMALY":75.4507,"EPHEMERIS_TYPE":0,"CLASSIFICATION_TYPE":"U","NORAD_CAT_ID":57710,"ELEMENT_SET_NO":999,"REV_AT_EPOCH":14034,"BSTAR":-4.5274018e-5,"MEAN_MOTION_DOT":-1.474e-5,"MEAN_MOTION_DDOT":0},{"OBJECT_NAME":"STARLINK-30318","OBJECT_ID":"2023-129P","EPOCH":"2026-03-07T13:54:33.974496","MEAN_MOTION":15.2674807,"ECCENTRICITY":0.00015773,"INCLINATION":43.003,"RA_OF_ASC_NODE":129.4872,"ARG_OF_PERICENTER":276.5069,"MEAN_ANOMALY":83.5603,"EPHEMERIS_TYPE":0,"CLASSIFICATION_TYPE":"U","NORAD_CAT_ID":57711,"ELEMENT_SET_NO":999,"REV_AT_EPOCH":14022,"BSTAR":0.00010092021,"MEAN_MOTION_DOT":2.449e-5,"MEAN_MOTION_DDOT":0},{"OBJECT_NAME":"STARLINK-30348","OBJECT_ID":"2023-129Q","EPOCH":"2026-03-07T14:00:01.000224","MEAN_MOTION":15.25830459,"ECCENTRICITY":0.00011295,"INCLINATION":42.9993,"RA_OF_ASC_NODE":129.8507,"ARG_OF_PERICENTER":249.3086,"MEAN_ANOMALY":334.219,"EPHEMERIS_TYPE":0,"CLASSIFICATION_TYPE":"U","NORAD_CAT_ID":57712,"ELEMENT_SET_NO":999,"REV_AT_EPOCH":578,"BSTAR":0.036066535,"MEAN_MOTION_DOT":0.01025879,"MEAN_MOTION_DDOT":0},{"OBJECT_NAME":"STARLINK-30349","OBJECT_ID":"2023-129R","EPOCH":"2026-03-07T14:00:01.000224","MEAN_MOTION":15.26556909,"ECCENTRICITY":8.382e-5,"INCLINATION":42.9989,"RA_OF_ASC_NODE":129.8905,"ARG_OF_PERICENTER":272.6655,"MEAN_ANOMALY":292.6141,"EPHEMERIS_TYPE":0,"CLASSIFICATION_TYPE":"U","NORAD_CAT_ID":57713,"ELEMENT_SET_NO":999,"REV_AT_EPOCH":568,"BSTAR":0.0055117023,"MEAN_MOTION_DOT":0.0014979,"MEAN_MOTION_DDOT":0},{"OBJECT_NAME":"STARLINK-30341","OBJECT_ID":"2023-129S","EPOCH":"2026-03-07T04:33:10.125792","MEAN_MOTION":15.03332346,"ECCENTRICITY":0.00010297,"INCLINATION":43.0005,"RA_OF_ASC_NODE":133.42,"ARG_OF_PERICENTER":220.8401,"MEAN_ANOMALY":139.2365,"EPHEMERIS_TYPE":0,"CLASSIFICATION_TYPE":"U","NORAD_CAT_ID":57714,"ELEMENT_SET_NO":999,"REV_AT_EPOCH":14028,"BSTAR":-4.4052727e-5,"MEAN_MOTION_DOT":-8.13e-6,"MEAN_MOTION_DDOT":0},{"OBJECT_NAME":"STARLINK-30300","OBJECT_ID":"2023-129T","EPOCH":"2026-03-07T14:00:01.000224","MEAN_MOTION":15.26714293,"ECCENTRICITY":7.832e-5,"INCLINATION":42.9994,"RA_OF_ASC_NODE":129.8358,"ARG_OF_PERICENTER":259.8651,"MEAN_ANOMALY":329.4748,"EPHEMERIS_TYPE":0,"CLASSIFICATION_TYPE":"U","NORAD_CAT_ID":57715,"ELEMENT_SET_NO":999,"REV_AT_EPOCH":578,"BSTAR":0.0025678218,"MEAN_MOTION_DOT":0.00069213,"MEAN_MOTION_DDOT":0},{"OBJECT_NAME":"STARLINK-30281","OBJECT_ID":"2023-129U","EPOCH":"2026-03-07T14:00:01.000224","MEAN_MOTION":15.2466023,"ECCENTRICITY":0.00011115,"INCLINATION":43.0033,"RA_OF_ASC_NODE":130.0533,"ARG_OF_PERICENTER":276.25,"MEAN_ANOMALY":220.0618,"EPHEMERIS_TYPE":0,"CLASSIFICATION_TYPE":"U","NORAD_CAT_ID":57716,"ELEMENT_SET_NO":999,"REV_AT_EPOCH":577,"BSTAR":0.030351385,"MEAN_MOTION_DOT":0.00818991,"MEAN_MOTION_DDOT":0},{"OBJECT_NAME":"STARLINK-30325","OBJECT_ID":"2023-129V","EPOCH":"2026-03-07T14:00:01.000224","MEAN_MOTION":15.26710255,"ECCENTRICITY":0.00011467,"INCLINATION":42.9994,"RA_OF_ASC_NODE":129.9235,"ARG_OF_PERICENTER":281.6127,"MEAN_ANOMALY":269.9034,"EPHEMERIS_TYPE":0,"CLASSIFICATION_TYPE":"U","NORAD_CAT_ID":57717,"ELEMENT_SET_NO":999,"REV_AT_EPOCH":578,"BSTAR":0.0027412756,"MEAN_MOTION_DOT":0.00073945,"MEAN_MOTION_DDOT":0},{"OBJECT_NAME":"STARLINK-30338","OBJECT_ID":"2023-129W","EPOCH":"2026-03-07T14:00:01.000224","MEAN_MOTION":15.26593712,"ECCENTRICITY":0.00010895,"INCLINATION":42.9995,"RA_OF_ASC_NODE":130.0219,"ARG_OF_PERICENTER":278.1424,"MEAN_ANOMALY":230.8466,"EPHEMERIS_TYPE":0,"CLASSIFICATION_TYPE":"U","NORAD_CAT_ID":57718,"ELEMENT_SET_NO":999,"REV_AT_EPOCH":568,"BSTAR":0.0053532369,"MEAN_MOTION_DOT":0.00145553,"MEAN_MOTION_DDOT":0}]
