STARLINK-30345          
1 57701U 23129D   26066.19975196  .00001744  00000+0  74668-4 0  9994
2 57701  42.9993 131.8146 0000427 177.5225 182.5629 15.26749181140163
STARLINK-30333          
1 57702U 23129E   26066.44723275  .00012514  00000+0  47466-3 0  9994
2 57702  43.0029 130.2299 0002737 289.1589  70.8966 15.26790527140340
STARLINK-30336          
1 57703U 23129F   26066.58334491  .00070983  00000+0  26348-2 0  9997
2 57703  42.9993 129.7268 0001735 278.5156 359.5849 15.26686051  5676
STARLINK-30346          
1 57704U 23129G   26066.44953294  .00001172  00000+0  53346-4 0  9995
2 57704  43.0041 130.2469 0001563 272.6719  87.3953 15.26747787140207
STARLINK-30327          
1 57707U 23129K   26066.35850615  .00111027  00000+0  40961-2 0  9999
2 57707  42.9976  98.1592 0021672  56.6239 303.6683 15.26456660140575
STARLINK-30315          
1 57708U 23129L   26066.58334491  .00073333  00000+0  27162-2 0  9999
2 57708  42.9992 129.7382 0001097 274.1080 357.1009 15.26742296  5784
STARLINK-30287          
1 57709U 23129M   26066.19153026  .00003131  00000+0  12633-3 0  9997
2 57709  42.9985 131.7458 0000815 177.9063 182.1792 15.26747877140305
STARLINK-30335          
1 57710U 23129N   26066.45855267 -.00001474  00000+0 -45274-4 0  9992
2 57710  43.0023 130.3110 0001777 284.6147  75.4507 15.26734217140345
STARLINK-30318          
1 57711U 23129P   26066.57955989  .00002449  00000+0  10092-3 0  9998
2 57711  43.0030 129.4872 0001577 276.5069  83.5603 15.26748070140225
STARLINK-30348          
1 57712U 23129Q   26066.58334491  .01025879  00000+0  36067-1 0  9990
2 57712  42.9993 129.8507 0001129 249.3086 334.2190 15.25830459  5781
STARLINK-30349          
1 57713U 23129R   26066.58334491  .00149790  00000+0  55117-2 0  9997
2 57713  42.9989 129.8905 0000838 272.6655 292.6141 15.26556909  5684
STARLINK-30341          
1 57714U 23129S   26066.18970053 -.00000813  00000+0 -44053-4 0  9997
2 57714  43.0005 133.4200 0001029 220.8401 139.2365 15.03332346140284
STARLINK-30300          
1 57715U 23129T   26066.58334491  .00069213  00000+0  25678-2 0  9999
2 57715  42.9994 129.8358 0000783 259.8651 329.4748 15.26714293  5781
STARLINK-30281          
1 57716U 23129U   26066.58334491  .00818991  00000+0  30351-1 0  9998
2 57716  43.0033 130.0533 0001111 276.2500 220.0618 15.24660230  5779
STARLINK-30325          
1 57717U 23129V   26066.58334491  .00073945  00000+0  27413-2 0  9997
2 57717  42.9994 129.9235 0001146 281.6127 269.9034 15.26710255  5783
STARLINK-30338          
1 57718U 23129W   26066.58334491  .00145553  00000+0  53532-2 0  9994
2 57718  42.9995 130.0219 0001089 278.1424 230.8466 15.26593712  5689
